*******************************************************************************
JPL/HORIZONS                877 Walkure (A915 RV)          2023-Sep-04 11:08:54
Rec #:     877 (+COV) Soln.date: 2023-Aug-24_22:43:21   # obs: 8258 (1921-2023)
 
IAU76/J2000 helio. ecliptic osc. elements (au, days, deg., period=Julian yrs):
 
  EPOCH=  2457286.5 ! 2015-Sep-21.00 (TDB)         Residual RMS= .25129
   EC= .1601937690212891   QR= 2.088456416792829   TP= 2456683.7557479972
   OM= 116.3923536854384   W=  276.1522050163765   IN= 4.255203223789868
   A= 2.486831294832071    MA= 151.4843142930414   ADIST= 2.885206172871313
   PER= 3.92173            N= .251324362           ANGMOM= .026776846
   DAN= 2.38212            DDN= 2.46534            L= 32.5614335
   B= -4.2306515           MOID= 1.09921002        TP= 2014-Jan-26.2557479972
 
Asteroid physical parameters (km, seconds, rotational period in hours):
   GM= n.a.                RAD= 19.205             ROTPER= 17.424
   H= 11.03                G= .150                 B-V= .636
                           ALBEDO= .0623           STYP= F

ASTEROID comments: 
1: soln ref.= JPL#99, OCC=0
2: source=ORB
*******************************************************************************


*******************************************************************************
Ephemeris / API_USER Mon Sep  4 11:08:54 2023 Pasadena, USA      / Horizons
*******************************************************************************
Target body name: 877 Walkure (A915 RV)           {source: JPL#99}
Center body name: Solar System Barycenter (0)     {source: DE441}
Center-site name: BODY CENTER
*******************************************************************************
Start time      : A.D. 2023-Aug-12 00:00:00.0000 TDB
Stop  time      : A.D. 2023-Aug-13 00:00:00.0000 TDB
Step-size       : 2880 minutes
*******************************************************************************
Center geodetic : 0.0, 0.0, 0.0                   {E-lon(deg),Lat(deg),Alt(km)}
Center cylindric: 0.0, 0.0, 0.0                   {E-lon(deg),Dxy(km),Dz(km)}
Center radii    : (undefined)
Small perturbers: Yes                             {source: SB441-N16}
Output units    : KM-S
Calendar mode   : Mixed Julian/Gregorian
Output type     : GEOMETRIC cartesian states
Output format   : 2 (position and velocity)
Reference frame : Ecliptic of J2000.0
*******************************************************************************
Initial IAU76/J2000 heliocentric ecliptic osculating elements (au, days, deg.):
  EPOCH=  2457286.5 ! 2015-Sep-21.00 (TDB)         Residual RMS= .25129        
   EC= .1601937690212891   QR= 2.088456416792829   TP= 2456683.7557479972      
   OM= 116.3923536854384   W=  276.1522050163765   IN= 4.255203223789868       
  Equivalent ICRF heliocentric cartesian coordinates (au, au/d):
   X=-2.785265607429990E+00  Y=-5.972294873080450E-01  Z=-3.632575108087804E-02
  VX= 1.249879143180225E-03 VY=-8.654253700960561E-03 VZ=-3.506365947942771E-03
Asteroid physical parameters (km, seconds, rotational period in hours):        
   GM= n.a.                RAD= 19.205             ROTPER= 17.424              
   H= 11.03                G= .150                 B-V= .636                   
                           ALBEDO= .0623           STYP= F                     
*******************************************************************************
JDTDB
   X     Y     Z
   VX    VY    VZ
*******************************************************************************
$$SOE
2460168.500000000 = A.D. 2023-Aug-12 00:00:00.0000 TDB 
 X =-4.140445821040780E+08 Y =-1.074754351245226E+08 Z = 3.108592832077643E+07
 VX= 3.213045120613207E+00 VY=-1.594373849267158E+01 VZ= 3.123671376766248E-01
$$EOE
*******************************************************************************
 
TIME

  Barycentric Dynamical Time ("TDB" or T_eph) output was requested. This
continuous coordinate time is equivalent to the relativistic proper time
of a clock at rest in a reference frame co-moving with the solar system
barycenter but outside the system's gravity well. It is the independent
variable in the solar system relativistic equations of motion.

  TDB runs at a uniform rate of one SI second per second and is independent
of irregularities in Earth's rotation.
 
CALENDAR SYSTEM

  Mixed calendar mode was active such that calendar dates after AD 1582-Oct-15
(if any) are in the modern Gregorian system. Dates prior to 1582-Oct-5 (if any)
are in the Julian calendar system, which is automatically extended for dates
prior to its adoption on 45-Jan-1 BC.  The Julian calendar is useful for
matching historical dates. The Gregorian calendar more accurately corresponds
to the Earth's orbital motion and seasons. A "Gregorian-only" calendar mode is
available if such physical events are the primary interest.

REFERENCE FRAME AND COORDINATES

  Ecliptic at the standard reference epoch

    Reference epoch: J2000.0
    X-Y plane: adopted Earth orbital plane at the reference epoch
               Note: IAU76 obliquity of 84381.448 arcseconds wrt ICRF X-Y plane
    X-axis   : ICRF
    Z-axis   : perpendicular to the X-Y plane in the directional (+ or -) sense
               of Earth's north pole at the reference epoch.

  Symbol meaning:

    JDTDB    Julian Day Number, Barycentric Dynamical Time
      X      X-component of position vector (km)
      Y      Y-component of position vector (km)
      Z      Z-component of position vector (km)
      VX     X-component of velocity vector (km/sec)                           
      VY     Y-component of velocity vector (km/sec)                           
      VZ     Z-component of velocity vector (km/sec)                           

ABERRATIONS AND CORRECTIONS

 Geometric state vectors have NO corrections or aberrations applied.

Computations by ...

    Solar System Dynamics Group, Horizons On-Line Ephemeris System
    4800 Oak Grove Drive, Jet Propulsion Laboratory
    Pasadena, CA  91109   USA

    General site: https://ssd.jpl.nasa.gov/
    Mailing list: https://ssd.jpl.nasa.gov/email_list.html
    System news : https://ssd.jpl.nasa.gov/horizons/news.html
    User Guide  : https://ssd.jpl.nasa.gov/horizons/manual.html
    Connect     : browser        https://ssd.jpl.nasa.gov/horizons/app.html#/x
                  API            https://ssd-api.jpl.nasa.gov/doc/horizons.html
                  command-line   telnet ssd.jpl.nasa.gov 6775
                  e-mail/batch   https://ssd.jpl.nasa.gov/ftp/ssd/hrzn_batch.txt
                  scripts        https://ssd.jpl.nasa.gov/ftp/ssd/SCRIPTS
    Author      : Jon.D.Giorgini@jpl.nasa.gov
*******************************************************************************
